[{"OBJECT_NAME":"STARLINK-34900","OBJECT_ID":"2025-190Z","EPOCH":"2026-03-09T12:53:34.365120","MEAN_MOTION":15.3017333,"ECCENTRICITY":0.00019026,"INCLINATION":53.1599,"RA_OF_ASC_NODE":168.7526,"ARG_OF_PERICENTER":134.895,"MEAN_ANOMALY":225.2206,"EPHEMERIS_TYPE":0,"CLASSIFICATION_TYPE":"U","NORAD_CAT_ID":65374,"ELEMENT_SET_NO":999,"REV_AT_EPOCH":2921,"BSTAR":-0.0010989861,"MEAN_MOTION_DOT":-0.00032741,"MEAN_MOTION_DDOT":0},{"OBJECT_NAME":"KUIPER-00177","OBJECT_ID":"2026-030C","EPOCH":"2026-03-09T22:40:13.687104","MEAN_MOTION":15.35467467,"ECCENTRICITY":0.00021592,"INCLINATION":51.8837,"RA_OF_ASC_NODE":217.7875,"ARG_OF_PERICENTER":172.5497,"MEAN_ANOMALY":187.5522,"EPHEMERIS_TYPE":0,"CLASSIFICATION_TYPE":"U","NORAD_CAT_ID":67766,"ELEMENT_SET_NO":999,"REV_AT_EPOCH":513,"BSTAR":-0.015747205,"MEAN_MOTION_DOT":-0.00515419,"MEAN_MOTION_DDOT":0}]
